NORAD_CAT_ID,OBJECT_NAME,OBJECT_TYPE,EPOCH,MEAN_MOTION,ECCENTRICITY,INCLINATION,RA_OF_ASC_NODE,ARG_OF_PERICENTER,MEAN_ANOMALY,BSTAR,MEAN_MOTION_DOT,MEAN_MOTION_DDOT,TLE_LINE0,TLE_LINE1,TLE_LINE2,SEMIMAJOR_AXIS,PERIOD,APOGEE,PERIGEE,DECAYED
52457.0,STARLINK-3899,PAYLOAD,2023-08-13 13:00:10,15.088454,8.48e-05,53.2164,325.1123,83.0844,277.0244,0.00028203,4.204e-05,0.0,0 STARLINK-3899,1 52457U 22049G   23225.54178894  .00004204  00000-0  28203-3 0  9998,2 52457  53.2164 325.1123 0000848  83.0844 277.0244 15.08845400 70491,6917.864,95.437,540.316,539.142,0.0
52457.0,STARLINK-3899,PAYLOAD,2023-08-14 00:07:52,15.08839003,9.13e-05,53.2162,323.0309,78.1059,282.0036,0.00013032,1.787e-05,0.0,0 STARLINK-3899,1 52457U 22049G   23226.00547224  .00001787  00000-0  13032-3 0  9994,2 52457  53.2162 323.0309 0000913  78.1059 282.0036 15.08839003 70563,6917.883,95.438,540.38,539.117,0.0
52457.0,STARLINK-3899,PAYLOAD,2023-08-14 09:40:12,15.08827962,0.0001114,53.2163,321.245,151.2474,208.8579,1.1217e-05,-1.09e-06,0.0,0 STARLINK-3899,1 52457U 22049G   23226.40291834 -.00000109  00000-0  11217-4 0  9993,2 52457  53.2163 321.2450 0001114 151.2474 208.8579 15.08827962 70625,6917.917,95.438,540.553,539.012,0.0
52457.0,STARLINK-3899,PAYLOAD,2023-08-15 09:30:59,15.08846883,8.03e-05,53.2167,316.7864,99.6008,260.5075,0.00087234,0.00013625,0.0,0 STARLINK-3899,1 52457U 22049G   23227.39652453  .00013625  00000-0  87234-3 0  9997,2 52457  53.2167 316.7864 0000803  99.6008 260.5075 15.08846883 70774,6917.859,95.437,540.28,539.169,0.0
52457.0,STARLINK-3899,PAYLOAD,2023-08-16 10:57:09,15.08863888,8.51e-05,53.2167,312.0282,96.1506,263.9583,0.0005959,9.215e-05,0.0,0 STARLINK-3899,1 52457U 22049G   23228.45635430  .00009215  00000-0  59590-3 0  9995,2 52457  53.2167 312.0282 0000851  96.1506 263.9583 15.08863888 70938,6917.807,95.436,540.261,539.084,0.0
52457.0,STARLINK-3899,PAYLOAD,2023-08-16 22:04:50,15.08858433,8.65e-05,53.2169,309.948,78.2992,281.8097,0.00035856,5.426e-05,0.0,0 STARLINK-3899,1 52457U 22049G   23228.92003116  .00005426  00000-0  35856-3 0  9996,2 52457  53.2169 309.9480 0000865  78.2992 281.8097 15.08858433 71008,6917.824,95.436,540.287,539.091,0.0
52457.0,STARLINK-3899,PAYLOAD,2023-08-17 10:47:55,15.08850636,7.95e-05,53.2167,307.5696,83.936,276.1722,8.4198e-05,1.053e-05,0.0,0 STARLINK-3899,1 52457U 22049G   23229.44995098  .00001053  00000-0  84198-4 0  9999,2 52457  53.2167 307.5696 0000795  83.9360 276.1722 15.08850636 71080,6917.848,95.437,540.263,539.163,0.0
52457.0,STARLINK-3899,PAYLOAD,2023-08-18 10:38:43,15.08834988,8.87e-05,53.2165,303.1106,74.2467,285.8623,-0.00014432,-2.583e-05,0.0,0 STARLINK-3899,1 52457U 22049G   23230.44355632 -.00002583  00000-0 -14432-3 0  9999,2 52457  53.2165 303.1106 0000887  74.2467 285.8623 15.08834988 71235,6917.896,95.438,540.374,539.147,0.0
52457.0,STARLINK-3899,PAYLOAD,2023-08-19 12:04:53,15.0884498,8.6e-05,53.2174,298.3506,75.8019,284.3068,9.9893e-05,1.303e-05,0.0,0 STARLINK-3899,1 52457U 22049G   23231.50339349  .00001303  00000-0  99893-4 0  9996,2 52457  53.2174 298.3506 0000860  75.8019 284.3068 15.08844980 71392,6917.865,95.437,540.325,539.135,0.0
52457.0,STARLINK-3899,PAYLOAD,2023-08-19 23:12:35,15.08834973,9.75e-05,53.2158,296.2691,64.7604,295.3489,0.000166,2.355e-05,0.0,0 STARLINK-3899,1 52457U 22049G   23231.96707918  .00002355  00000-0  16600-3 0  9999,2 52457  53.2158 296.2691 0000975  64.7604 295.3489 15.08834973 71468,6917.896,95.438,540.435,539.086,0.0
52457.0,STARLINK-3899,PAYLOAD,2023-08-21 03:49:31,15.08842595,9.93e-05,53.2157,290.9167,71.7594,288.3506,0.00011004,1.464e-05,0.0,0 STARLINK-3899,1 52457U 22049G   23233.15939771  .00001464  00000-0  11004-3 0  9999,2 52457  53.2157 290.9167 0000993  71.7594 288.3506 15.08842595 71643,6917.872,95.437,540.424,539.051,0.0
52457.0,STARLINK-3899,PAYLOAD,2023-08-22 03:40:19,15.08839068,0.0001082,53.2167,286.4573,67.9426,292.1681,9.948e-05,1.296e-05,0.0,0 STARLINK-3899,1 52457U 22049G   23234.15300001  .00001296  00000-0  99480-4 0  9996,2 52457  53.2167 286.4573 0001082  67.9426 292.1681 15.08839068 71790,6917.883,95.438,540.497,539.0,0.0
52457.0,STARLINK-3899,PAYLOAD,2023-08-23 08:17:15,15.0884308,0.0001057,53.2159,281.1032,73.0116,287.0992,5.3563e-05,5.65e-06,0.0,0 STARLINK-3899,1 52457U 22049G   23235.34531693  .00000565  00000-0  53563-4 0  9991,2 52457  53.2159 281.1032 0001057  73.0116 287.0992 15.08843080 71976,6917.871,95.437,540.467,539.005,0.0
52457.0,STARLINK-3899,PAYLOAD,2023-08-24 09:43:25,15.0883818,0.0001142,53.2166,276.3448,95.9029,264.2094,7.2036e-05,8.59e-06,0.0,0 STARLINK-3899,1 52457U 22049G   23236.40515954  .00000859  00000-0  72036-4 0  9993,2 52457  53.2166 276.3448 0001142  95.9029 264.2094 15.08838180 71977,6917.886,95.438,540.541,538.961,0.0
52457.0,STARLINK-3899,PAYLOAD,2023-08-25 07:58:49,15.08837062,0.0001228,53.2167,272.182,96.6262,263.487,2.7097e-05,1.43e-06,0.0,0 STARLINK-3899,1 52457U 22049G   23237.33252293  .00000143  00000-0  27097-4 0  9993,2 52457  53.2167 272.1820 0001228  96.6262 263.4870 15.08837062 72116,6917.889,95.438,540.604,538.905,0.0
52457.0,STARLINK-3899,PAYLOAD,2023-08-26 01:28:04,15.08837243,0.000122,53.2166,268.9106,95.0259,265.0873,5.9359e-05,6.57e-06,0.0,0 STARLINK-3899,1 52457U 22049G   23238.06116360  .00000657  00000-0  59359-4 0  9994,2 52457  53.2166 268.9106 0001220  95.0259 265.0873 15.08837243 72387,6917.889,95.438,540.598,538.91,0.0
52457.0,STARLINK-3899,PAYLOAD,2023-08-26 11:00:23,15.08840563,0.0001217,53.2164,267.1262,93.4642,266.6489,7.9137e-05,9.72e-06,0.0,0 STARLINK-3899,1 52457U 22049G   23238.45860180  .00000972  00000-0  79137-4 0  9999,2 52457  53.2164 267.1262 0001217  93.4642 266.6489 15.08840563 72281,6917.879,95.438,540.586,538.902,0.0
52457.0,STARLINK-3899,PAYLOAD,2023-08-27 02:54:14,15.08839749,0.0001264,53.2165,264.1522,91.7988,268.3149,8.815e-05,1.115e-05,0.0,0 STARLINK-3899,1 52457U 22049G   23239.12100282  .00001115  00000-0  88150-4 0  9999,2 52457  53.2165 264.1522 0001264  91.7988 268.3149 15.08839749 72549,6917.881,95.438,540.621,538.872,0.0
52457.0,STARLINK-3899,PAYLOAD,2023-08-27 09:15:46,15.08842853,0.0001259,53.2164,262.9627,91.6744,268.4392,0.00010771,1.427e-05,0.0,0 STARLINK-3899,1 52457U 22049G   23239.38596048  .00001427  00000-0  10771-3 0  9995,2 52457  53.2164 262.9627 0001259  91.6744 268.4392 15.08842853 72421,6917.872,95.437,540.608,538.866,0.0
52457.0,STARLINK-3899,PAYLOAD,2023-08-27 10:51:10,15.08843765,0.0001252,53.2162,262.6651,91.548,268.5655,0.00011344,1.518e-05,0.0,0 STARLINK-3899,1 52457U 22049G   23239.45219954  .00001518  00000-0  11344-3 0  9999,2 52457  53.2162 262.6651 0001252  91.5480 268.5655 15.08843765 72439,6917.869,95.437,540.6,538.868,0.0
52457.0,STARLINK-3899,PAYLOAD,2023-08-28 02:45:02,15.08836956,0.0001304,53.2161,259.6913,90.8615,269.2527,1.6612e-05,-2.4e-07,0.0,0 STARLINK-3899,1 52457U 22049G   23240.11460719 -.00000024  00000-0  16612-4 0  9997,2 52457  53.2161 259.6913 0001304  90.8615 269.2527 15.08836956 72693,6917.89,95.438,540.657,538.853,0.0
52457.0,STARLINK-3899,PAYLOAD,2023-08-28 18:38:53,15.08840824,0.0001328,53.2161,256.7177,90.4881,269.6264,4.3956e-05,4.12e-06,0.0,0 STARLINK-3899,1 52457U 22049G   23240.77700397  .00000412  00000-0  43956-4 0  9999,2 52457  53.2161 256.7177 0001328  90.4881 269.6264 15.08840824 72635,6917.878,95.438,540.662,538.824,0.0
52457.0,STARLINK-3899,PAYLOAD,2023-08-29 07:21:57,15.08844577,0.000135,53.2159,254.3385,92.641,267.4737,4.1493e-05,3.73e-06,0.0,0 STARLINK-3899,1 52457U 22049G   23241.30692096  .00000373  00000-0  41493-4 0  9995,2 52457  53.2159 254.3385 0001350  92.6410 267.4737 15.08844577 72870,6917.866,95.437,540.665,538.797,0.0
52457.0,STARLINK-3899,PAYLOAD,2023-08-30 00:51:13,15.08835485,0.0001343,53.2157,251.0675,92.01,268.1046,3.7458e-05,3.08e-06,0.0,0 STARLINK-3899,1 52457U 22049G   23242.03556743  .00000308  00000-0  37458-4 0  9998,2 52457  53.2157 251.0675 0001343  92.0100 268.1046 15.08835485 72987,6917.894,95.438,540.688,538.83,0.0
52457.0,STARLINK-3899,PAYLOAD,2023-08-30 10:23:31,15.08836159,0.0001354,53.2157,249.2833,92.0666,268.0481,3.7957e-05,3.16e-06,0.0,0 STARLINK-3899,1 52457U 22049G   23242.43300788  .00000316  00000-0  37957-4 0  9991,2 52457  53.2157 249.2833 0001354  92.0666 268.0481 15.08836159 72881,6917.892,95.438,540.694,538.82,0.0
52457.0,STARLINK-3899,PAYLOAD,2023-08-31 00:41:59,15.08839624,0.0001364,53.2161,246.6078,85.3646,274.7502,4.1786e-05,3.77e-06,0.0,0 STARLINK-3899,1 52457U 22049G   23243.02916653  .00000377  00000-0  41786-4 0  9993,2 52457  53.2161 246.6078 0001364  85.3646 274.7502 15.08839624 72970,6917.882,95.438,540.69,538.803,0.0
52457.0,STARLINK-3899,PAYLOAD,2023-09-01 00:32:47,15.08837466,0.000132,53.2159,242.1473,80.7685,279.3456,5.1957e-05,5.39e-06,0.0,0 STARLINK-3899,1 52457U 22049G   23244.02276882  .00000539  00000-0  51957-4 0  9998,2 52457  53.2159 242.1473 0001320  80.7685 279.3456 15.08837466 73287,6917.888,95.438,540.666,538.84,0.0
52457.0,STARLINK-3899,PAYLOAD,2023-09-01 06:54:19,15.08838007,0.0001338,53.2157,240.9567,84.3104,275.8041,5.845e-05,6.42e-06,0.0,0 STARLINK-3899,1 52457U 22049G   23244.28772886  .00000642  00000-0  58450-4 0  9991,2 52457  53.2157 240.9567 0001338  84.3104 275.8041 15.08838007 73160,6917.886,95.438,540.677,538.826,0.0
52457.0,STARLINK-3899,PAYLOAD,2023-09-01 16:26:38,15.08839064,0.0001318,53.2155,239.1723,82.449,277.6652,5.7669e-05,6.3e-06,0.0,0 STARLINK-3899,1 52457U 22049G   23244.68516870  .00000630  00000-0  57669-4 0  9992,2 52457  53.2155 239.1723 0001318  82.4490 277.6652 15.08839064 73226,6917.883,95.438,540.66,538.836,0.0
52457.0,STARLINK-3899,PAYLOAD,2023-09-02 06:45:06,15.08841701,0.0001304,53.2166,236.4977,92.1939,267.9203,7.5071e-05,9.07e-06,0.0,0 STARLINK-3899,1 52457U 22049G   23245.28132680  .00000907  00000-0  75071-4 0  9996,2 52457  53.2166 236.4977 0001304  92.1939 267.9203 15.08841701 73472,6917.875,95.437,540.642,538.838,0.0
